GLOBALSTAR M084 [+]     
1 38040U 11080A   24021.60734493 -.00000097  00000+0  36184-4 0  9992
2 38040  51.9992 168.9537 0000960  82.5791  45.8000 12.62270351557933
GLOBALSTAR M080 [+]     
1 38041U 11080B   24021.82280458 -.00000102  00000+0  11067-4 0  9994
2 38041  52.0043 169.7251 0000811  74.4701  73.0451 12.62268564558084
GLOBALSTAR M082 [+]     
1 38042U 11080C   24022.45423825 -.00000109  00000+0 -30111-4 0  9991
2 38042  52.0074 123.1945 0001364 130.6476 308.3933 12.62265248559043
GLOBALSTAR M092 [+]     
1 38043U 11080D   24022.49395358 -.00000064  00000+0  21971-3 0  9997
2 38043  52.0056 213.4271 0001181  79.6354 297.6110 12.62275890557547
GLOBALSTAR M090 [+]     
1 38044U 11080E   24021.70827503 -.00000107  00000+0 -20104-4 0  9990
2 38044  51.9884 119.9329 0000993 129.7268  38.7068 12.62265384558892
GLOBALSTAR M086 [+]     
1 38045U 11080F   24021.73399814 -.00000108  00000+0 -22299-4 0  9991
2 38045  51.9895 120.3670 0000557 206.2445 318.3318 12.62266583558846
GLOBALSTAR M097 [+]     
1 39072U 13005A   24022.19903972 -.00000110  00000+0 -36513-4 0  9995
2 39072  52.0068  32.9751 0000313 160.7902 199.2976 12.62259973506238
GLOBALSTAR M093 [+]     
1 39073U 13005B   24022.17254683 -.00000087  00000+0  91389-4 0  9996
2 39073  51.9829  27.1779 0000363 175.9701 184.1168 12.62260081506225
